SCD 1                   
1 22490U 93009B   26204.75495455  .00000381  00000+0  52997-4 0  9993
2 22490  24.9709 341.7909 0041896 164.7369 334.4973 14.46131271766414
SCD 2                   
1 25504U 98060A   26204.33449236  .00000329  00000+0  41078-4 0  9994
2 25504  24.9935 209.2393 0016896 144.3748 238.6600 14.45536636465563
SENTINEL-1A             
1 39634U 14016A   26204.71044689  .00000035  00000+0  17216-4 0  9998
2 39634  98.1701 211.7058 0001398  88.9672 271.1688 14.59174326655346
SENTINEL-2A             
1 40697U 15028A   26204.85806826 -.00000099  00000+0 -21125-4 0  9993
2 40697  98.5670 279.1864 0001350  95.9931 264.1406 14.30815619578972
SENTINEL-3A             
1 41335U 16011A   26204.82433404  .00000151  00000+0  80335-4 0  9996
2 41335  98.6230 271.6781 0001287  86.8623 273.2705 14.26736224543284
SCATSAT 1               
1 41790U 16059H   26204.59750693  .00001181  00000+0  16099-3 0  9998
2 41790  98.1171 268.7361 0055700 129.9347 230.6778 14.79603582106976
SENTINEL-2B             
1 42063U 17013A   26204.85087481 -.00000106  00000+0 -23985-4 0  9991
2 42063  98.5677 279.1051 0001239  92.2066 267.9259 14.30816223489881
SENTINEL-2C             
1 60989U 24157A   26204.67606258  .00000073  00000+0  44422-4 0  9994
2 60989  98.5678 278.9391 0001057 109.0448 251.0850 14.30817474 98204
SENTINEL-1C             
1 62261U 24235A   26204.81831199  .00000107  00000+0  32313-4 0  9990
2 62261  98.1830 211.6072 0001387  88.1017 272.0341 14.59197832 86755
SENTINEL-1D             
1 66315U 25251A   26204.44132404  .00000056  00000+0  21686-4 0  9999
2 66315  98.1829 211.2906 0001391  93.9921 266.1438 14.59198373 38010
